STARLINK-30502          
1 57973U 23151K   23295.58334491 -.01649939  00000+0 -21085-1 0  9990
2 57973  42.9992  37.6080 0001567 283.7513 131.0695 15.61702647  4828
STARLINK-30489          
1 57974U 23151L   23295.58334491 -.01647136  00000+0 -21030-1 0  9998
2 57974  42.9991  37.6041 0001641 289.1536 126.6082 15.61719208  4778
STARLINK-30503          
1 57975U 23151M   23295.58334491 -.01648355  00000+0 -21032-1 0  9995
2 57975  42.9992  37.6016 0001613 287.0461 129.6559 15.61738483  4829
STARLINK-30512          
1 57976U 23151N   23295.58334491 -.01650284  00000+0 -21068-1 0  9999
2 57976  42.9991  37.6033 0001454 283.5078 132.7240 15.61730430  4721
STARLINK-30509          
1 57977U 23151P   23295.58334491 -.01718708  00000+0 -25446-1 0  9990
2 57977  42.9990  37.7516 0001467 287.5884  68.2381 15.57490153  4775
STARLINK-30511          
1 57978U 23151Q   23295.58334491 -.01713431  00000+0 -25320-1 0  9990
2 57978  42.9990  37.7468 0001682 283.0843  74.1158 15.57528456  4829
STARLINK-30508          
1 57979U 23151R   23295.58334491 -.01711284  00000+0 -25267-1 0  9995
2 57979  42.9991  37.7459 0001616 281.8510  76.0353 15.57547413  4771
STARLINK-30504          
1 57980U 23151S   23295.58334491 -.01718732  00000+0 -25425-1 0  9998
2 57980  42.9991  37.7498 0001588 276.2590  80.2541 15.57511210  4828
STARLINK-30510          
1 57981U 23151T   23295.58334491 -.01708703  00000+0 -25204-1 0  9991
2 57981  42.9991  37.7439 0001773 280.1349  78.4359 15.57567314  4772
STARLINK-30507          
1 57982U 23151U   23295.58334491 -.01704922  00000+0 -25126-1 0  9994
2 57982  42.9991  37.7425 0001661 285.8178  73.4391 15.57584912  4826
STARLINK-30515          
1 57983U 23151V   23295.58334491 -.01704093  00000+0 -25096-1 0  9990
2 57983  42.9990  37.7408 0001390 283.9759  75.9659 15.57604604  4779
STARLINK-30516          
1 57984U 23151W   23295.58334491 -.01701905  00000+0 -25040-1 0  9999
2 57984  42.9991  37.7390 0001598 282.9885  77.6377 15.57623793  4822
STARLINK-30519          
1 57985U 23151X   23295.58334491 -.01699675  00000+0 -24986-1 0  9998
2 57985  42.9990  37.7356 0001522 282.5068  78.8037 15.57642834  4777
YAOGAN-39 03A           
1 57986U 23152A   23293.22469582  .00025196  00000+0  10167-2 0  9994
2 57986  34.9968 259.1991 0005804  33.4635  96.3944 15.23872752  2316
