[
  {
    "OBJECT_NAME": "STARLINK-30502",
    "OBJECT_ID": "2023-151K",
    "EPOCH": "2023-10-22T14:00:01.000224",
    "MEAN_MOTION": 15.61702647,
    "ECCENTRICITY": 0.0001567,
    "INCLINATION": 42.9992,
    "RA_OF_ASC_NODE": 37.608,
    "ARG_OF_PERICENTER": 283.7513,
    "MEAN_ANOMALY": 131.0695,
    "EPHEMERIS_TYPE": 0,
    "CLASSIFICATION_TYPE": "U",
    "NORAD_CAT_ID": 57973,
    "ELEMENT_SET_NO": 999,
    "REV_AT_EPOCH": 482,
    "BSTAR": -0.021085,
    "MEAN_MOTION_DOT": -0.01649939,
    "MEAN_MOTION_DDOT": 0
  },
  {
    "OBJECT_NAME": "STARLINK-30489",
    "OBJECT_ID": "2023-151L",
    "EPOCH": "2023-10-22T14:00:01.000224",
    "MEAN_MOTION": 15.61719208,
    "ECCENTRICITY": 0.0001641,
    "INCLINATION": 42.9991,
    "RA_OF_ASC_NODE": 37.6041,
    "ARG_OF_PERICENTER": 289.1536,
    "MEAN_ANOMALY": 126.6082,
    "EPHEMERIS_TYPE": 0,
    "CLASSIFICATION_TYPE": "U",
    "NORAD_CAT_ID": 57974,
    "ELEMENT_SET_NO": 999,
    "REV_AT_EPOCH": 477,
    "BSTAR": -0.02103,
    "MEAN_MOTION_DOT": -0.01647136,
    "MEAN_MOTION_DDOT": 0
  },
  {
    "OBJECT_NAME": "STARLINK-30503",
    "OBJECT_ID": "2023-151M",
    "EPOCH": "2023-10-22T14:00:01.000224",
    "MEAN_MOTION": 15.61738483,
    "ECCENTRICITY": 0.0001613,
    "INCLINATION": 42.9992,
    "RA_OF_ASC_NODE": 37.6016,
    "ARG_OF_PERICENTER": 287.0461,
    "MEAN_ANOMALY": 129.6559,
    "EPHEMERIS_TYPE": 0,
    "CLASSIFICATION_TYPE": "U",
    "NORAD_CAT_ID": 57975,
    "ELEMENT_SET_NO": 999,
    "REV_AT_EPOCH": 482,
    "BSTAR": -0.021032,
    "MEAN_MOTION_DOT": -0.01648355,
    "MEAN_MOTION_DDOT": 0
  },
  {
    "OBJECT_NAME": "STARLINK-30512",
    "OBJECT_ID": "2023-151N",
    "EPOCH": "2023-10-22T14:00:01.000224",
    "MEAN_MOTION": 15.6173043,
    "ECCENTRICITY": 0.0001454,
    "INCLINATION": 42.9991,
    "RA_OF_ASC_NODE": 37.6033,
    "ARG_OF_PERICENTER": 283.5078,
    "MEAN_ANOMALY": 132.724,
    "EPHEMERIS_TYPE": 0,
    "CLASSIFICATION_TYPE": "U",
    "NORAD_CAT_ID": 57976,
    "ELEMENT_SET_NO": 999,
    "REV_AT_EPOCH": 472,
    "BSTAR": -0.021068,
    "MEAN_MOTION_DOT": -0.01650284,
    "MEAN_MOTION_DDOT": 0
  },
  {
    "OBJECT_NAME": "STARLINK-30509",
    "OBJECT_ID": "2023-151P",
    "EPOCH": "2023-10-22T14:00:01.000224",
    "MEAN_MOTION": 15.57490153,
    "ECCENTRICITY": 0.0001467,
    "INCLINATION": 42.999,
    "RA_OF_ASC_NODE": 37.7516,
    "ARG_OF_PERICENTER": 287.5884,
    "MEAN_ANOMALY": 68.2381,
    "EPHEMERIS_TYPE": 0,
    "CLASSIFICATION_TYPE": "U",
    "NORAD_CAT_ID": 57977,
    "ELEMENT_SET_NO": 999,
    "REV_AT_EPOCH": 477,
    "BSTAR": -0.025446,
    "MEAN_MOTION_DOT": -0.01718708,
    "MEAN_MOTION_DDOT": 0
  },
  {
    "OBJECT_NAME": "STARLINK-30511",
    "OBJECT_ID": "2023-151Q",
    "EPOCH": "2023-10-22T14:00:01.000224",
    "MEAN_MOTION": 15.57528456,
    "ECCENTRICITY": 0.0001682,
    "INCLINATION": 42.999,
    "RA_OF_ASC_NODE": 37.7468,
    "ARG_OF_PERICENTER": 283.0843,
    "MEAN_ANOMALY": 74.1158,
    "EPHEMERIS_TYPE": 0,
    "CLASSIFICATION_TYPE": "U",
    "NORAD_CAT_ID": 57978,
    "ELEMENT_SET_NO": 999,
    "REV_AT_EPOCH": 482,
    "BSTAR": -0.02532,
    "MEAN_MOTION_DOT": -0.01713431,
    "MEAN_MOTION_DDOT": 0
  },
  {
    "OBJECT_NAME": "STARLINK-30508",
    "OBJECT_ID": "2023-151R",
    "EPOCH": "2023-10-22T14:00:01.000224",
    "MEAN_MOTION": 15.57547413,
    "ECCENTRICITY": 0.0001616,
    "INCLINATION": 42.9991,
    "RA_OF_ASC_NODE": 37.7459,
    "ARG_OF_PERICENTER": 281.851,
    "MEAN_ANOMALY": 76.0353,
    "EPHEMERIS_TYPE": 0,
    "CLASSIFICATION_TYPE": "U",
    "NORAD_CAT_ID": 57979,
    "ELEMENT_SET_NO": 999,
    "REV_AT_EPOCH": 477,
    "BSTAR": -0.025267,
    "MEAN_MOTION_DOT": -0.01711284,
    "MEAN_MOTION_DDOT": 0
  },
  {
    "OBJECT_NAME": "STARLINK-30504",
    "OBJECT_ID": "2023-151S",
    "EPOCH": "2023-10-22T14:00:01.000224",
    "MEAN_MOTION": 15.5751121,
    "ECCENTRICITY": 0.0001588,
    "INCLINATION": 42.9991,
    "RA_OF_ASC_NODE": 37.7498,
    "ARG_OF_PERICENTER": 276.259,
    "MEAN_ANOMALY": 80.2541,
    "EPHEMERIS_TYPE": 0,
    "CLASSIFICATION_TYPE": "U",
    "NORAD_CAT_ID": 57980,
    "ELEMENT_SET_NO": 999,
    "REV_AT_EPOCH": 482,
    "BSTAR": -0.025425,
    "MEAN_MOTION_DOT": -0.01718732,
    "MEAN_MOTION_DDOT": 0
  },
  {
    "OBJECT_NAME": "STARLINK-30510",
    "OBJECT_ID": "2023-151T",
    "EPOCH": "2023-10-22T14:00:01.000224",
    "MEAN_MOTION": 15.57567314,
    "ECCENTRICITY": 0.0001773,
    "INCLINATION": 42.9991,
    "RA_OF_ASC_NODE": 37.7439,
    "ARG_OF_PERICENTER": 280.1349,
    "MEAN_ANOMALY": 78.4359,
    "EPHEMERIS_TYPE": 0,
    "CLASSIFICATION_TYPE": "U",
    "NORAD_CAT_ID": 57981,
    "ELEMENT_SET_NO": 999,
    "REV_AT_EPOCH": 477,
    "BSTAR": -0.025204,
    "MEAN_MOTION_DOT": -0.01708703,
    "MEAN_MOTION_DDOT": 0
  },
  {
    "OBJECT_NAME": "STARLINK-30507",
    "OBJECT_ID": "2023-151U",
    "EPOCH": "2023-10-22T14:00:01.000224",
    "MEAN_MOTION": 15.57584912,
    "ECCENTRICITY": 0.0001661,
    "INCLINATION": 42.9991,
    "RA_OF_ASC_NODE": 37.7425,
    "ARG_OF_PERICENTER": 285.8178,
    "MEAN_ANOMALY": 73.4391,
    "EPHEMERIS_TYPE": 0,
    "CLASSIFICATION_TYPE": "U",
    "NORAD_CAT_ID": 57982,
    "ELEMENT_SET_NO": 999,
    "REV_AT_EPOCH": 482,
    "BSTAR": -0.025126,
    "MEAN_MOTION_DOT": -0.01704922,
    "MEAN_MOTION_DDOT": 0
  },
  {
    "OBJECT_NAME": "STARLINK-30515",
    "OBJECT_ID": "2023-151V",
    "EPOCH": "2023-10-22T14:00:01.000224",
    "MEAN_MOTION": 15.57604604,
    "ECCENTRICITY": 0.000139,
    "INCLINATION": 42.999,
    "RA_OF_ASC_NODE": 37.7408,
    "ARG_OF_PERICENTER": 283.9759,
    "MEAN_ANOMALY": 75.9659,
    "EPHEMERIS_TYPE": 0,
    "CLASSIFICATION_TYPE": "U",
    "NORAD_CAT_ID": 57983,
    "ELEMENT_SET_NO": 999,
    "REV_AT_EPOCH": 477,
    "BSTAR": -0.025096,
    "MEAN_MOTION_DOT": -0.01704093,
    "MEAN_MOTION_DDOT": 0
  },
  {
    "OBJECT_NAME": "STARLINK-30516",
    "OBJECT_ID": "2023-151W",
    "EPOCH": "2023-10-22T14:00:01.000224",
    "MEAN_MOTION": 15.57623793,
    "ECCENTRICITY": 0.0001598,
    "INCLINATION": 42.9991,
    "RA_OF_ASC_NODE": 37.739,
    "ARG_OF_PERICENTER": 282.9885,
    "MEAN_ANOMALY": 77.6377,
    "EPHEMERIS_TYPE": 0,
    "CLASSIFICATION_TYPE": "U",
    "NORAD_CAT_ID": 57984,
    "ELEMENT_SET_NO": 999,
    "REV_AT_EPOCH": 482,
    "BSTAR": -0.02504,
    "MEAN_MOTION_DOT": -0.01701905,
    "MEAN_MOTION_DDOT": 0
  },
  {
    "OBJECT_NAME": "STARLINK-30519",
    "OBJECT_ID": "2023-151X",
    "EPOCH": "2023-10-22T14:00:01.000224",
    "MEAN_MOTION": 15.57642834,
    "ECCENTRICITY": 0.0001522,
    "INCLINATION": 42.999,
    "RA_OF_ASC_NODE": 37.7356,
    "ARG_OF_PERICENTER": 282.5068,
    "MEAN_ANOMALY": 78.8037,
    "EPHEMERIS_TYPE": 0,
    "CLASSIFICATION_TYPE": "U",
    "NORAD_CAT_ID": 57985,
    "ELEMENT_SET_NO": 999,
    "REV_AT_EPOCH": 477,
    "BSTAR": -0.024986,
    "MEAN_MOTION_DOT": -0.01699675,
    "MEAN_MOTION_DDOT": 0
  },
  {
    "OBJECT_NAME": "YAOGAN-39 03A",
    "OBJECT_ID": "2023-152A",
    "EPOCH": "2023-10-20T05:23:33.718848",
    "MEAN_MOTION": 15.23872752,
    "ECCENTRICITY": 0.0005804,
    "INCLINATION": 34.9968,
    "RA_OF_ASC_NODE": 259.1991,
    "ARG_OF_PERICENTER": 33.4635,
    "MEAN_ANOMALY": 96.3944,
    "EPHEMERIS_TYPE": 0,
    "CLASSIFICATION_TYPE": "U",
    "NORAD_CAT_ID": 57986,
    "ELEMENT_SET_NO": 999,
    "REV_AT_EPOCH": 231,
    "BSTAR": 0.0010167,
    "MEAN_MOTION_DOT": 0.00025196,
    "MEAN_MOTION_DDOT": 0
  }
]
